NORAD_CAT_ID,OBJECT_NAME,OBJECT_TYPE,EPOCH,MEAN_MOTION,ECCENTRICITY,INCLINATION,RA_OF_ASC_NODE,ARG_OF_PERICENTER,MEAN_ANOMALY,BSTAR,MEAN_MOTION_DOT,MEAN_MOTION_DDOT,TLE_LINE0,TLE_LINE1,TLE_LINE2,SEMIMAJOR_AXIS,PERIOD,APOGEE,PERIGEE,DECAYED
51770.0,STARLINK-3612,PAYLOAD,2023-01-07 17:37:23,15.08835447,0.0002339,53.2163,132.8921,39.0164,321.0997,9.2321e-05,1.181e-05,0.0,0 STARLINK-3612,1 51770U 22017C   23007.73429518  .00001181  00000-0  92321-4 0  9995,2 51770  53.2163 132.8921 0002339  39.0164 321.0997 15.08835447 49399,6917.894,95.438,541.377,538.141,0.0
51770.0,STARLINK-3612,PAYLOAD,2023-01-08 14:17:24,15.08839686,0.0002455,53.2168,129.0273,30.2744,329.8389,0.0002651,3.933e-05,0.0,0 STARLINK-3612,1 51770U 22017C   23008.59541923  .00003933  00000-0  26510-3 0  9998,2 51770  53.2168 129.0273 0002455  30.2744 329.8389 15.08839686 48083,6917.880999999999,95.438,541.445,538.048,0.0
51770.0,STARLINK-3612,PAYLOAD,2023-01-08 17:28:10,15.08840706,0.0002447,53.2168,128.4327,30.2163,329.897,0.00026301,3.9e-05,0.0,0 STARLINK-3612,1 51770U 22017C   23008.72789905  .00003900  00000-0  26301-3 0  9999,2 51770  53.2168 128.4327 0002447  30.2163 329.8970 15.08840706 48106,6917.8780000000015,95.438,541.436,538.05,0.0
51770.0,STARLINK-3612,PAYLOAD,2023-01-09 01:25:06,15.08844523,0.0002475,53.2168,126.9466,31.2372,328.8766,0.00022213,3.249e-05,0.0,0 STARLINK-3612,1 51770U 22017C   23009.05909785  .00003249  00000-0  22213-3 0  9990,2 51770  53.2168 126.9466 0002475  31.2372 328.8766 15.08844523 49594,6917.866999999998,95.437,541.444,538.019,0.0
51770.0,STARLINK-3612,PAYLOAD,2023-01-09 14:08:11,15.08845636,0.0002484,53.216,124.5676,33.8494,326.2656,0.00021831,3.188e-05,0.0,0 STARLINK-3612,1 51770U 22017C   23009.58901772  .00003188  00000-0  21831-3 0  9993,2 51770  53.2160 124.5676 0002484  33.8494 326.2656 15.08845636 48232,6917.863,95.437,541.447,538.01,0.0
51770.0,STARLINK-3612,PAYLOAD,2023-01-09 17:18:57,15.08841173,0.0002487,53.2162,123.9728,30.443,329.6707,0.00015251,2.14e-05,0.0,0 STARLINK-3612,1 51770U 22017C   23009.72149970  .00002140  00000-0  15251-3 0  9999,2 51770  53.2162 123.9728 0002487  30.4430 329.6707 15.08841173 49698,6917.877,95.437,541.462,538.021,0.0
51770.0,STARLINK-3612,PAYLOAD,2023-01-10 13:58:58,15.08837321,0.0002542,53.2167,120.108,26.6111,333.5011,-1.8706e-05,-5.86e-06,0.0,0 STARLINK-3612,1 51770U 22017C   23010.58262182 -.00000586  00000-0 -18706-4 0  9999,2 51770  53.2167 120.1080 0002542  26.6111 333.5011 15.08837321 48385,6917.889,95.438,541.512,537.995,0.0
51770.0,STARLINK-3612,PAYLOAD,2023-01-10 17:09:45,15.08836523,0.0002507,53.2173,119.5129,26.9203,333.1919,-1.6228e-05,-5.47e-06,0.0,0 STARLINK-3612,1 51770U 22017C   23010.71510438 -.00000547  00000-0 -16228-4 0  9998,2 51770  53.2173 119.5129 0002507  26.9203 333.1919 15.08836523 49842,6917.891,95.438,541.49,538.0219999999998,0.0
51770.0,STARLINK-3612,PAYLOAD,2023-01-11 13:49:46,15.08834956,0.0002425,53.2175,115.6468,26.3114,333.8,4.859800000000001e-05,4.85e-06,0.0,0 STARLINK-3612,1 51770U 22017C   23011.57623188  .00000485  00000-0  48598-4 0  9994,2 51770  53.2175 115.6468 0002425  26.3114 333.8000 15.08834956 48532,6917.896,95.438,541.438,538.0830000000002,0.0
51770.0,STARLINK-3612,PAYLOAD,2023-01-11 17:00:32,15.08836926,0.0002398,53.2172,115.0524,28.6326,331.4798,4.0613e-05,3.58e-06,0.0,0 STARLINK-3612,1 51770U 22017C   23011.70871138  .00000358  00000-0  40613-4 0  9998,2 51770  53.2172 115.0524 0002398  28.6326 331.4798 15.08836926 48554,6917.89,95.438,541.414,538.096,0.0
51770.0,STARLINK-3612,PAYLOAD,2023-01-11 23:22:05,15.08829948,0.0002495,53.2172,113.8622,25.5772,334.5343,3.0169e-05,1.92e-06,0.0,0 STARLINK-3612,1 51770U 22017C   23011.97367822  .00000192  00000-0  30169-4 0  9998,2 51770  53.2172 113.8622 0002495  25.5772 334.5343 15.08829948 50030,6917.911,95.438,541.502,538.05,0.0
51770.0,STARLINK-3612,PAYLOAD,2023-01-12 16:51:19,15.08843414,0.0002563999999999,53.2178,110.5913,25.238000000000003,334.8737,0.00010624,1.403e-05,0.0,0 STARLINK-3612,1 51770U 22017C   23012.70231026  .00001403  00000-0  10624-3 0  9995,2 51770  53.2178 110.5913 0002564  25.2380 334.8737 15.08843414 50148,6917.87,95.437,541.509,537.961,0.0
51770.0,STARLINK-3612,PAYLOAD,2023-01-12 23:12:52,15.08834238,0.0002471,53.2173,109.4024,29.9303,330.18300000000005,0.00010253,1.344e-05,0.0,0 STARLINK-3612,1 51770U 22017C   23012.96727785  .00001344  00000-0  10253-3 0  9997,2 51770  53.2173 109.4024 0002471  29.9303 330.1830 15.08834238 50187,6917.898,95.438,541.472,538.054,0.0
51770.0,STARLINK-3612,PAYLOAD,2023-01-13 11:55:58,15.08832055,0.0002440999999999,53.2168,107.0237,34.944,325.1712,0.00011362,1.52e-05,0.0,0 STARLINK-3612,1 51770U 22017C   23013.49720447  .00001520  00000-0  11362-3 0  9992,2 51770  53.2168 107.0237 0002441  34.9440 325.1712 15.08832055 48822,6917.905,95.438,541.4580000000001,538.081,0.0
51770.0,STARLINK-3612,PAYLOAD,2023-01-14 07:00:36,15.08838146,0.0002387,53.2172,103.4557,41.8815,318.2359,4.8788e-06,-2.11e-06,0.0,0 STARLINK-3612,1 51770U 22017C   23014.29208560 -.00000211  00000-0  48788-5 0  9999,2 51770  53.2172 103.4557 0002387  41.8815 318.2359 15.08838146 50385,6917.886,95.438,541.4019999999999,538.1,0.0
51770.0,STARLINK-3612,PAYLOAD,2023-01-14 11:46:44,15.08854058,0.000192,53.2188,102.5636,48.181,311.9346,-3.6646e-05,-8.72e-06,0.0,0 STARLINK-3612,1 51770U 22017C   23014.49079555 -.00000872  00000-0 -36646-4 0  9994,2 51770  53.2188 102.5636 0001920  48.1810 311.9346 15.08854058 50417,6917.837,95.437,541.031,538.374,0.0
51770.0,STARLINK-3612,PAYLOAD,2023-01-14 22:54:26,15.0884775,0.0001998,53.2181,100.4821,41.196000000000005,318.9183,-8.098899999999999e-05,-1.577e-05,0.0,0 STARLINK-3612,1 51770U 22017C   23014.95447901 -.00001577  00000-0 -80989-4 0  9991,2 51770  53.2181 100.4821 0001998  41.1960 318.9183 15.08847750 50481,6917.857,95.437,541.104,538.34,0.0
51770.0,STARLINK-3612,PAYLOAD,2023-01-15 05:16:00,15.08823708,0.0002014,53.2168,99.2923,50.4941,309.6229,-1.7389000000000002e-05,-5.65e-06,0.0,0 STARLINK-3612,1 51770U 22017C   23015.21945580 -.00000565  00000-0 -17389-4 0  9997,2 51770  53.2168  99.2923 0002014  50.4941 309.6229 15.08823708 50526,6917.93,95.439,541.188,538.4019999999999,0.0
51770.0,STARLINK-3612,PAYLOAD,2023-01-15 14:48:19,15.08835498,0.0002269,53.2152,97.5088,53.8185,306.3017,6.6719e-06,-1.82e-06,0.0,0 STARLINK-3612,1 51770U 22017C   23015.61689002 -.00000182  00000-0  66719-5 0  9991,2 51770  53.2152  97.5088 0002269  53.8185 306.3017 15.08835498 50585,6917.894,95.438,541.3290000000001,538.189,0.0
51770.0,STARLINK-3612,PAYLOAD,2023-01-16 11:28:18,15.08848208,0.0001441999999999,53.2166,93.6428,44.6411,315.4697,0.0002334,3.429e-05,0.0,0 STARLINK-3612,1 51770U 22017C   23016.47799760  .00003429  00000-0  23340-3 0  9996,2 51770  53.2166  93.6428 0001442  44.6411 315.4697 15.08848208 50710,6917.855,95.437,540.7180000000001,538.7230000000001,0.0
51770.0,STARLINK-3612,PAYLOAD,2023-01-16 14:39:04,15.08870128,0.0001636999999999,53.2171,93.0476,55.6045,304.5102,0.00046069,7.057e-05,0.0,0 STARLINK-3612,1 51770U 22017C   23016.61046654  .00007057  00000-0  46069-3 0  9993,2 51770  53.2171  93.0476 0001637  55.6045 304.5102 15.08870128 49291,6917.7880000000005,95.436,540.786,538.521,0.0
51770.0,STARLINK-3612,PAYLOAD,2023-01-17 04:57:36,15.08807146,0.0001950999999999,53.2148,90.3726,66.2696,293.8501,-0.00013283,-2.4e-05,0.0,0 STARLINK-3612,1 51770U 22017C   23017.20667136 -.00002400  00000-0 -13283-3 0  9994,2 51770  53.2148  90.3726 0001951  66.2696 293.8501 15.08807146 50826,6917.981,95.44,541.196,538.496,0.0
51770.0,STARLINK-3612,PAYLOAD,2023-01-17 11:19:08,15.08815096,0.0002141,53.2144,89.1826,73.9013,286.2215,-7.3785e-05,-1.462e-05,0.0,0 STARLINK-3612,1 51770U 22017C   23017.47162889 -.00001462  00000-0 -73785-4 0  9999,2 51770  53.2144  89.1826 0002141  73.9013 286.2215 15.08815096 50864,6917.956999999999,95.439,541.303,538.34,0.0
51770.0,STARLINK-3612,PAYLOAD,2023-01-18 07:59:07,15.08852121,0.0001401,53.2174,85.3156,76.979,283.1359,-8.920799999999999e-05,-1.708e-05,0.0,0 STARLINK-3612,1 51770U 22017C   23018.33272594 -.00001708  00000-0 -89208-4 0  9990,2 51770  53.2174  85.3156 0001401  76.9790 283.1359 15.08852121 50993,6917.843000000001,95.437,540.678,538.739,0.0
51770.0,STARLINK-3612,PAYLOAD,2023-01-18 11:09:52,15.08873112,0.0001361999999999,53.2178,84.72200000000001,67.6847,292.4289,6.6146e-05,7.66e-06,0.0,0 STARLINK-3612,1 51770U 22017C   23018.46518956  .00000766  00000-0  66146-4 0  9996,2 51770  53.2178  84.7220 0001362  67.6847 292.4289 15.08873112 49578,6917.779,95.435,540.586,538.702,0.0
51770.0,STARLINK-3612,PAYLOAD,2023-01-18 20:42:11,15.08863958,0.0001288,53.2171,82.9373,65.7088,294.4039,1.9233e-05,1.8e-07,0.0,0 STARLINK-3612,1 51770U 22017C   23018.86263107  .00000018  00000-0  19233-4 0  9990,2 51770  53.2171  82.9373 0001288  65.7088 294.4039 15.08863958 51073,6917.807,95.436,540.563,538.781,0.0
51770.0,STARLINK-3612,PAYLOAD,2023-01-19 04:39:08,15.08830242,0.0001457,53.2163,81.4517,91.8077,268.3082,0.00029349,4.385e-05,0.0,0 STARLINK-3612,1 51770U 22017C   23019.19384985  .00004385  00000-0  29349-3 0  9994,2 51770  53.2163  81.4517 0001457  91.8077 268.3082 15.08830242 51128,6917.91,95.438,540.783,538.7669999999999,0.0
51770.0,STARLINK-3612,PAYLOAD,2023-01-19 11:00:40,15.08842457,0.0001291999999999,53.2156,80.2609,89.2677,270.8463,0.00036577,5.538e-05,0.0,0 STARLINK-3612,1 51770U 22017C   23019.45880112  .00005538  00000-0  36577-3 0  9998,2 51770  53.2156  80.2609 0001292  89.2677 270.8463 15.08842457 51169,6917.8730000000005,95.437,540.632,538.844,0.0
51770.0,STARLINK-3612,PAYLOAD,2023-01-20 02:54:32,15.08851815,0.0001266,53.2179,77.2882,87.1765,272.9372,-8.5515e-05,-1.649e-05,0.0,0 STARLINK-3612,1 51770U 22017C   23020.12120703 -.00001649  00000-0 -85515-4 0  9995,2 51770  53.2179  77.2882 0001266  87.1765 272.9372 15.08851815 51260,6917.844,95.437,540.585,538.8330000000001,0.0
